NORAD_CAT_ID,OBJECT_NAME,OBJECT_TYPE,EPOCH,MEAN_MOTION,ECCENTRICITY,INCLINATION,RA_OF_ASC_NODE,ARG_OF_PERICENTER,MEAN_ANOMALY,BSTAR,MEAN_MOTION_DOT,MEAN_MOTION_DDOT,TLE_LINE0,TLE_LINE1,TLE_LINE2,SEMIMAJOR_AXIS,PERIOD,APOGEE,PERIGEE,DECAYED
53737.0,STARLINK-4646,PAYLOAD,2023-12-01 10:01:51,15.08844659,0.0001954,53.2197,26.7245,72.3916,287.7289,-9.6925e-06,-4.42e-06,0.0,0 STARLINK-4646,1 53737U 22107AP  23335.41795752 -.00000442  00000-0 -96925-5 0  9991,2 53737  53.2197  26.7245 0001954  72.3916 287.7289 15.08844659 69409,6917.866,95.437,541.083,538.379,0.0
53737.0,STARLINK-4646,PAYLOAD,2023-12-02 09:52:36,15.08880122,0.0001837,53.2194,22.2567,104.6406,255.479,0.00051061,7.856e-05,0.0,0 STARLINK-4646,1 53737U 22107AP  23336.41152827  .00007856  00000-0  51061-3 0  9996,2 53737  53.2194  22.2567 0001837 104.6406 255.4790 15.08880122 68770,6917.758,95.435,540.894,538.352,0.0
53737.0,STARLINK-4646,PAYLOAD,2023-12-03 03:21:53,15.08817314,0.0001755,53.2182,18.9852,104.6257,255.4929,-0.00033729,-5.649e-05,0.0,0 STARLINK-4646,1 53737U 22107AP  23337.14020354 -.00005649  00000-0 -33729-3 0  9997,2 53737  53.2182  18.9852 0001755 104.6257 255.4929 15.08817314 68888,6917.95,95.439,541.029,538.601,0.0
53737.0,STARLINK-4646,PAYLOAD,2023-12-03 09:43:27,15.08790903,0.0001721,53.2176,17.8005,94.4226,265.6963,-0.00078164,-0.0001269,0.0,0 STARLINK-4646,1 53737U 22107AP  23337.40517527 -.00012690  00000-0 -78164-3 0  9995,2 53737  53.2176  17.8005 0001721  94.4226 265.6963 15.08790903 68924,6918.03,95.441,541.086,538.705,0.0
53737.0,STARLINK-4646,PAYLOAD,2023-12-03 17:40:22,15.08829947,0.0001666,53.2182,16.319,79.273,280.845,0.00015473,2.175e-05,0.0,0 STARLINK-4646,1 53737U 22107AP  23337.73637158  .00002175  00000-0  15473-3 0  9993,2 53737  53.2182  16.3190 0001666  79.2730 280.8450 15.08829947 68975,6917.911,95.438,540.929,538.624,0.0
53737.0,STARLINK-4646,PAYLOAD,2023-12-04 09:34:13,15.08851042,0.0001909,53.2165,13.3396,63.1219,296.9968,0.00061391,9.499e-05,0.0,0 STARLINK-4646,1 53737U 22107AP  23338.39876872  .00009499  00000-0  61391-3 0  9990,2 53737  53.2165  13.3396 0001909  63.1219 296.9968 15.08851042 69070,6917.847,95.437,541.032,538.391,0.0
53737.0,STARLINK-4646,PAYLOAD,2023-12-05 01:28:05,15.08839899,0.0002102,53.2187,10.3672,88.6952,271.4281,0.00070369,0.00010929,0.0,0 STARLINK-4646,1 53737U 22107AP  23339.06117676  .00010929  00000-0  70369-3 0  9990,2 53737  53.2187  10.3672 0002102  88.6952 271.4281 15.08839899 69173,6917.881,95.438,541.2,538.292,0.0
53737.0,STARLINK-4646,PAYLOAD,2023-12-05 11:00:24,15.08833873,0.0002111,53.2186,8.5797,74.8507,285.2719,0.0004983,7.65e-05,0.0,0 STARLINK-4646,1 53737U 22107AP  23339.45861935  .00007650  00000-0  49830-3 0  9993,2 53737  53.2186   8.5797 0002111  74.8507 285.2719 15.08833873 69234,6917.899,95.438,541.224,538.304,0.0
53737.0,STARLINK-4646,PAYLOAD,2023-12-06 10:51:09,15.08868112,0.0002231,53.2185,4.1184,71.6478,288.4757,0.00015343,2.156e-05,0.0,0 STARLINK-4646,1 53737U 22107AP  23340.45219370  .00002156  00000-0  15343-3 0  9993,2 53737  53.2185   4.1184 0002231  71.6478 288.4757 15.08868112 69387,6917.794,95.436,541.203,538.116,0.0
53737.0,STARLINK-4646,PAYLOAD,2023-12-07 01:09:38,15.08841647,0.0001826,53.2178,1.4433,75.7622,284.3573,-9.4752e-05,-1.796e-05,0.0,0 STARLINK-4646,1 53737U 22107AP  23341.04836167 -.00001796  00000-0 -94752-4 0  9991,2 53737  53.2178   1.4433 0001826  75.7622 284.3573 15.08841647 69476,6917.875,95.437,541.004,538.477,0.0
53737.0,STARLINK-4646,PAYLOAD,2023-12-07 09:06:34,15.08844334,0.0002035,53.2174,359.9573,74.1276,285.994,-6.3283e-06,-3.89e-06,0.0,0 STARLINK-4646,1 53737U 22107AP  23341.37956092 -.00000389  00000-0 -63283-5 0  9990,2 53737  53.2174 359.9573 0002035  74.1276 285.9940 15.08844334 70304,6917.867,95.437,541.14,538.324,0.0
53737.0,STARLINK-4646,PAYLOAD,2023-12-08 10:32:44,15.0884688,0.0002016,53.2168,355.2,80.4596,279.6624,0.00014638,2.043e-05,0.0,0 STARLINK-4646,1 53737U 22107AP  23342.43940006  .00002043  00000-0  14638-3 0  9991,2 53737  53.2168 355.2000 0002016  80.4596 279.6624 15.08846880 69681,6917.859,95.437,541.119,538.33,0.0
53737.0,STARLINK-4646,PAYLOAD,2023-12-09 04:01:58,15.08843307,0.0002154,53.2165,351.9294,77.4139,282.7094,0.00023516,3.457e-05,0.0,0 STARLINK-4646,1 53737U 22107AP  23343.16804343  .00003457  00000-0  23516-3 0  9990,2 53737  53.2165 351.9294 0002154  77.4139 282.7094 15.08843307 69797,6917.87,95.437,541.225,538.245,0.0
53737.0,STARLINK-4646,PAYLOAD,2023-12-09 07:12:45,15.08844937,0.0002213,53.2168,351.335,76.3995,283.7244,0.00024915,3.68e-05,0.0,0 STARLINK-4646,1 53737U 22107AP  23343.30052287  .00003680  00000-0  24915-3 0  9990,2 53737  53.2168 351.3350 0002213  76.3995 283.7244 15.08844937 70599,6917.865,95.437,541.261,538.199,0.0
53737.0,STARLINK-4646,PAYLOAD,2023-12-10 00:41:59,15.08840209,0.0002403,53.2178,348.0648,86.9451,273.1816,6.3127e-05,7.16e-06,0.0,0 STARLINK-4646,1 53737U 22107AP  23344.02916441  .00000716  00000-0  63127-4 0  9997,2 53737  53.2178 348.0648 0002403  86.9451 273.1816 15.08840209 69929,6917.88,95.438,541.407,538.082,0.0
53737.0,STARLINK-4646,PAYLOAD,2023-12-11 03:43:33,15.08839861,0.0002461,53.219,343.0111,102.4004,257.7264,8.1376e-05,1.007e-05,0.0,0 STARLINK-4646,1 53737U 22107AP  23345.15524460  .00001007  00000-0  81376-4 0  9998,2 53737  53.2190 343.0111 0002461 102.4004 257.7264 15.08839861 70092,6917.881,95.438,541.448,538.043,0.0
53737.0,STARLINK-4646,PAYLOAD,2023-12-11 06:54:19,15.0883964,0.0002329,53.2185,342.416,97.3162,262.8094,6.5132e-05,7.48e-06,0.0,0 STARLINK-4646,1 53737U 22107AP  23345.28772507  .00000748  00000-0  65132-4 0  9992,2 53737  53.2185 342.4160 0002329  97.3162 262.8094 15.08839640 70894,6917.881,95.438,541.358,538.135,0.0
53737.0,STARLINK-4646,PAYLOAD,2023-12-12 05:09:43,15.0884062,0.0002054,53.2184,338.2496,96.3694,263.7533,0.00012443,1.693e-05,0.0,0 STARLINK-4646,1 53737U 22107AP  23346.21508588  .00001693  00000-0  12443-3 0  9998,2 53737  53.2184 338.2496 0002054  96.3694 263.7533 15.08840620 70250,6917.878,95.438,541.164,538.323,0.0
53737.0,STARLINK-4646,PAYLOAD,2023-12-12 21:03:35,15.0883593,0.0002151,53.2183,335.2812,103.5964,256.5268,0.00015307,2.148e-05,0.0,0 STARLINK-4646,1 53737U 22107AP  23346.87748876  .00002148  00000-0  15307-3 0  9994,2 53737  53.2183 335.2812 0002151 103.5964 256.5268 15.08835930 71138,6917.893,95.438,541.246,538.27,0.0
53737.0,STARLINK-4646,PAYLOAD,2023-12-13 05:00:30,15.08837148,0.0002156,53.2186,333.7955,102.9803,257.1429,5.0824e-05,5.21e-06,0.0,0 STARLINK-4646,1 53737U 22107AP  23347.20869089  .00000521  00000-0  50824-4 0  9999,2 53737  53.2186 333.7955 0002156 102.9803 257.1429 15.08837148 70400,6917.889,95.438,541.246,538.263,0.0
53737.0,STARLINK-4646,PAYLOAD,2023-12-14 06:26:41,15.08841131,0.0002047,53.2182,329.0357,83.6621,276.4604,9.9591e-05,1.297e-05,0.0,0 STARLINK-4646,1 53737U 22107AP  23348.26853042  .00001297  00000-0  99591-4 0  9993,2 53737  53.2182 329.0357 0002047  83.6621 276.4604 15.08841131 70565,6917.877,95.437,541.158,538.326,0.0
53737.0,STARLINK-4646,PAYLOAD,2023-12-15 06:17:27,15.08846149,0.0002083,53.2181,324.5734,80.5807,279.542,0.00015457,2.173e-05,0.0,0 STARLINK-4646,1 53737U 22107AP  23349.26212736  .00002173  00000-0  15457-3 0  9995,2 53737  53.2181 324.5734 0002083  80.5807 279.5420 15.08846149 71492,6917.862,95.437,541.168,538.286,0.0
53737.0,STARLINK-4646,PAYLOAD,2023-12-16 02:57:28,15.08839774,0.0001967,53.2175,320.708,91.6521,268.4697,6.5536e-05,7.55e-06,0.0,0 STARLINK-4646,1 53737U 22107AP  23350.12325187  .00000755  00000-0  65536-4 0  9995,2 53737  53.2175 320.7080 0001967  91.6521 268.4697 15.08839774 70840,6917.881,95.438,541.107,538.385,0.0
53737.0,STARLINK-4646,PAYLOAD,2023-12-16 04:32:52,15.08841988,0.000215,53.2189,320.4055,82.1724,277.9512,0.00010089,1.318e-05,0.0,0 STARLINK-4646,1 53737U 22107AP  23350.18949162  .00001318  00000-0  10089-3 0  9994,2 53737  53.2189 320.4055 0002150  82.1724 277.9512 15.08841988 71638,6917.874,95.437,541.227,538.252,0.0
53737.0,STARLINK-4646,PAYLOAD,2023-12-17 04:23:38,15.0884685,0.0002039,53.2183,315.9505,82.0,278.1224,6.5673e-05,7.57e-06,0.0,0 STARLINK-4646,1 53737U 22107AP  23351.18308998  .00000757  00000-0  65673-4 0  9997,2 53737  53.2183 315.9505 0002039  82.0000 278.1224 15.08846850 71000,6917.859,95.437,541.135,538.314,0.0
53737.0,STARLINK-4646,PAYLOAD,2023-12-18 04:14:25,15.0884885,0.0001911,53.2174,311.4851,91.4897,268.6314,0.00051459,7.913e-05,0.0,0 STARLINK-4646,1 53737U 22107AP  23352.17668700  .00007913  00000-0  51459-3 0  9994,2 53737  53.2174 311.4851 0001911  91.4897 268.6314 15.08848850 71939,6917.853,95.437,541.04,538.396,0.0
53737.0,STARLINK-4646,PAYLOAD,2023-12-19 04:05:13,15.08830151,0.000183,53.2173,307.0244,108.3775,251.7416,-0.00012841,-2.331e-05,0.0,0 STARLINK-4646,1 53737U 22107AP  23353.17029652 -.00002331  00000-0 -12841-3 0  9995,2 53737  53.2173 307.0244 0001830 108.3775 251.7416 15.08830151 71300,6917.91,95.438,541.041,538.51,0.0
53737.0,STARLINK-4646,PAYLOAD,2023-12-20 03:56:00,15.0884038,0.0001717,53.2175,302.5685,106.4691,253.649,0.00015083,2.113e-05,0.0,0 STARLINK-4646,1 53737U 22107AP  23354.16389889  .00002113  00000-0  15083-3 0  9993,2 53737  53.2175 302.5685 0001717 106.4691 253.6490 15.08840380 71455,6917.879,95.438,540.932,538.556,0.0
53737.0,STARLINK-4646,PAYLOAD,2023-12-21 03:46:47,15.08864554,0.00016,53.2171,298.1073,96.9254,263.192,0.00069687,0.00010827,0.0,0 STARLINK-4646,1 53737U 22107AP  23355.15749293  .00010827  00000-0  69687-3 0  9992,2 53737  53.2171 298.1073 0001600  96.9254 263.1920 15.08864554 71601,6917.805,95.436,540.777,538.563,0.0
53737.0,STARLINK-4646,PAYLOAD,2023-12-22 03:37:34,15.08845024,0.0001346,53.2167,293.6496,105.4962,254.6179,0.00019288,2.784e-05,0.0,0 STARLINK-4646,1 53737U 22107AP  23356.15109609  .00002784  00000-0  19288-3 0  9999,2 53737  53.2167 293.6496 0001346 105.4962 254.6179 15.08845024 71752,6917.865,95.437,540.661,538.799,0.0
